start=new Date('2021-11-23T00:00:00.000Z').valueOf();
sats=[{"OBJECT_TYPE":"PAYLOAD","FILE":"3221315","PERIOD":"95.644","TLE_LINE1":"1 46169U 20057BE  21326.52704973 -.00000476  00000-0 -13487-4 0  9997","REV_AT_EPOCH":"7034","ARG_OF_PERICENTER":"84.4500","OBJECT_NAME":"STARLINK-1628","RCS_SIZE":"LARGE","SEMIMAJOR_AXIS":"6927.859","RA_OF_ASC_NODE":"156.3667","SITE":"AFETR","PERIAPSIS":"548.375","ELEMENT_SET_NO":"999","MEAN_ELEMENT_THEORY":"SGP4","CLASSIFICATION_TYPE":"U","NORAD_CAT_ID":"46169","APOAPSIS":"551.073","MEAN_MOTION_DDOT":"0.0000000000000","MEAN_MOTION":"15.05581287","EPOCH":"2021-11-22T12:38:57.096672","INCLINATION":"52.9990","TLE_LINE2":"2 46169  52.9990 156.3667 0001947  84.4500 275.6710 15.05581287 70342","DECAY_DATE":null,"LAUNCH_DATE":"2020-08-18","BSTAR":"-0.00001348700000","MEAN_ANOMALY":"275.6710","REF_FRAME":"TEME","MEAN_MOTION_DOT":"-0.00000476","GP_ID":"190266829","ECCENTRICITY":"0.00019470","TIME_SYSTEM":"UTC","CENTER_NAME":"EARTH","COUNTRY_CODE":"US","EPHEMERIS_TYPE":"0","OBJECT_ID":"2020-057BE"},{"ECCENTRICITY":"0.00018680","GP_ID":"190263692","MEAN_MOTION_DOT":"0.00000907","REF_FRAME":"TEME","MEAN_ANOMALY":"278.8974","OBJECT_ID":"2020-057BG","COUNTRY_CODE":"US","EPHEMERIS_TYPE":"0","CENTER_NAME":"EARTH","TIME_SYSTEM":"UTC","INCLINATION":"53.0534","EPOCH":"2021-11-21T22:23:53.969856","MEAN_MOTION":"15.06391262","APOAPSIS":"548.534","MEAN_MOTION_DDOT":"0.0000000000000","DECAY_DATE":null,"BSTAR":"0.00007977800000","LAUNCH_DATE":"2020-08-18","TLE_LINE2":"2 46171  53.0534 139.0391 0001868  81.2226 278.8974 15.06391262 71155","RA_OF_ASC_NODE":"139.0391","SEMIMAJOR_AXIS":"6925.375","NORAD_CAT_ID":"46171","CLASSIFICATION_TYPE":"U","ELEMENT_SET_NO":"999","PERIAPSIS":"545.947","MEAN_ELEMENT_THEORY":"SGP4","SITE":"AFETR","TLE_LINE1":"1 46171U 20057BG  21325.93326354  .00000907  00000-0  79778-4 0  9999","REV_AT_EPOCH":"7115","PERIOD":"95.593","FILE":"3221278","OBJECT_TYPE":"PAYLOAD","RCS_SIZE":"LARGE","ARG_OF_PERICENTER":"81.2226","OBJECT_NAME":"STARLINK-1633"},{"PERIOD":"95.593","REV_AT_EPOCH":"7065","TLE_LINE1":"1 46172U 20057BH  21326.61148257  .00000589  00000-0  58470-4 0  9992","OBJECT_TYPE":"PAYLOAD","FILE":"3221323","OBJECT_NAME":"STARLINK-1635","ARG_OF_PERICENTER":"76.0155","RCS_SIZE":"LARGE","SEMIMAJOR_AXIS":"6925.396","RA_OF_ASC_NODE":"136.0038","CLASSIFICATION_TYPE":"U","NORAD_CAT_ID":"46172","SITE":"AFETR","PERIAPSIS":"546.129","ELEMENT_SET_NO":"999","MEAN_ELEMENT_THEORY":"SGP4","EPOCH":"2021-11-22T14:40:32.094048","INCLINATION":"53.0541","APOAPSIS":"548.392","MEAN_MOTION_DDOT":"0.0000000000000","MEAN_MOTION":"15.06384603","TLE_LINE2":"2 46172  53.0541 136.0038 0001634  76.0155 284.1016 15.06384603 70655","DECAY_DATE":null,"LAUNCH_DATE":"2020-08-18","BSTAR":"0.00005847000000","ECCENTRICITY":"0.00016340","MEAN_ANOMALY":"284.1016","REF_FRAME":"TEME","MEAN_MOTION_DOT":"0.00000589","GP_ID":"190267137","COUNTRY_CODE":"US","EPHEMERIS_TYPE":"0","OBJECT_ID":"2020-057BH","TIME_SYSTEM":"UTC","CENTER_NAME":"EARTH"},{"SEMIMAJOR_AXIS":"6925.393","RA_OF_ASC_NODE":"156.3883","PERIAPSIS":"546.054","ELEMENT_SET_NO":"999","MEAN_ELEMENT_THEORY":"SGP4","SITE":"AFETR","NORAD_CAT_ID":"46173","CLASSIFICATION_TYPE":"U","FILE":"3221325","OBJECT_TYPE":"PAYLOAD","TLE_LINE1":"1 46173U 20057BJ  21326.52486247  .00000562  00000-0  56673-4 0  9991","REV_AT_EPOCH":"7036","PERIOD":"95.593","RCS_SIZE":"LARGE","OBJECT_NAME":"STARLINK-1640","ARG_OF_PERICENTER":"85.6246","MEAN_MOTION_DOT":"0.00000562","GP_ID":"190267162","MEAN_ANOMALY":"274.4941","REF_FRAME":"TEME","ECCENTRICITY":"0.00017380","CENTER_NAME":"EARTH","TIME_SYSTEM":"UTC","OBJECT_ID":"2020-057BJ","COUNTRY_CODE":"US","EPHEMERIS_TYPE":"0","MEAN_MOTION":"15.06385613","APOAPSIS":"548.461","MEAN_MOTION_DDOT":"0.0000000000000","INCLINATION":"53.0538","EPOCH":"2021-11-22T12:35:48.117408","DECAY_DATE":null,"BSTAR":"0.00005667300000","LAUNCH_DATE":"2020-08-18","TLE_LINE2":"2 46173  53.0538 156.3883 0001738  85.6246 274.4941 15.06385613 70366"},{"TLE_LINE2":"2 46174  53.0542 156.3481 0002084  78.8684 281.2539 15.06400641 69705","DECAY_DATE":null,"LAUNCH_DATE":"2020-08-18","BSTAR":"0.00005649300000","APOAPSIS":"548.655","MEAN_MOTION_DDOT":"0.0000000000000","MEAN_MOTION":"15.06400641","EPOCH":"2021-11-22T12:46:22.742688","INCLINATION":"53.0542","TIME_SYSTEM":"UTC","CENTER_NAME":"EARTH","COUNTRY_CODE":"US","EPHEMERIS_TYPE":"0","OBJECT_ID":"2020-057BK","MEAN_ANOMALY":"281.2539","REF_FRAME":"TEME","GP_ID":"190263442","MEAN_MOTION_DOT":"0.00000560","ECCENTRICITY":"0.00020840","OBJECT_NAME":"STARLINK-1641","ARG_OF_PERICENTER":"78.8684","RCS_SIZE":"LARGE","OBJECT_TYPE":"PAYLOAD","FILE":"3221278","PERIOD":"95.592","REV_AT_EPOCH":"6970","TLE_LINE1":"1 46174U 20057BK  21326.53220767  .00000560  00000-0  56493-4 0  9994","SITE":"AFETR","PERIAPSIS":"545.768","ELEMENT_SET_NO":"999","MEAN_ELEMENT_THEORY":"SGP4","CLASSIFICATION_TYPE":"U","NORAD_CAT_ID":"46174","SEMIMAJOR_AXIS":"6925.347","RA_OF_ASC_NODE":"156.3481"},{"OBJECT_NAME":"STARLINK-1734","ARG_OF_PERICENTER":"79.1975","RCS_SIZE":"LARGE","PERIOD":"95.592","TLE_LINE1":"1 46325U 20062A   21326.87547792  .00001179  00000-0  98073-4 0  9992","REV_AT_EPOCH":"6922","OBJECT_TYPE":"PAYLOAD","FILE":"3221567","CLASSIFICATION_TYPE":"U","NORAD_CAT_ID":"46325","SITE":"AFETR","PERIAPSIS":"546.022","ELEMENT_SET_NO":"999","MEAN_ELEMENT_THEORY":"SGP4","SEMIMAJOR_AXIS":"6925.364","RA_OF_ASC_NODE":"169.8151","TLE_LINE2":"2 46325  53.0539 169.8151 0001742  79.1975 280.9210 15.06395029 69221","DECAY_DATE":null,"LAUNCH_DATE":"2020-09-03","BSTAR":"0.00009807300000","EPOCH":"2021-11-22T21:00:41.292288","INCLINATION":"53.0539","APOAPSIS":"548.435","MEAN_MOTION_DDOT":"0.0000000000000","MEAN_MOTION":"15.06395029","COUNTRY_CODE":"US","EPHEMERIS_TYPE":"0","OBJECT_ID":"2020-062A","TIME_SYSTEM":"UTC","CENTER_NAME":"EARTH","ECCENTRICITY":"0.00017420","REF_FRAME":"TEME","MEAN_ANOMALY":"280.9210","MEAN_MOTION_DOT":"0.00001179","GP_ID":"190271796"},{"NORAD_CAT_ID":"46326","CLASSIFICATION_TYPE":"U","PERIAPSIS":"545.664","ELEMENT_SET_NO":"999","MEAN_ELEMENT_THEORY":"SGP4","SITE":"AFETR","RA_OF_ASC_NODE":"218.1972","SEMIMAJOR_AXIS":"6925.351","RCS_SIZE":"LARGE","OBJECT_NAME":"STARLINK-1654","ARG_OF_PERICENTER":"71.2958","REV_AT_EPOCH":"6789","TLE_LINE1":"1 46326U 20062B   21326.12028594 -.00000144  00000-0  92551-5 0  9993","PERIOD":"95.592","FILE":"3221278","OBJECT_TYPE":"PAYLOAD","OBJECT_ID":"2020-062B","COUNTRY_CODE":"US","EPHEMERIS_TYPE":"0","CENTER_NAME":"EARTH","TIME_SYSTEM":"UTC","ECCENTRICITY":"0.00022410","GP_ID":"190265199","MEAN_MOTION_DOT":"-0.00000144","REF_FRAME":"TEME","MEAN_ANOMALY":"288.8274","DECAY_DATE":null,"LAUNCH_DATE":"2020-09-03","BSTAR":"0.00000925510000","TLE_LINE2":"2 46326  53.0535 218.1972 0002241  71.2958 288.8274 15.06399219 67899","INCLINATION":"53.0535","EPOCH":"2021-11-22T02:53:12.705216","MEAN_MOTION":"15.06399219","APOAPSIS":"548.768","MEAN_MOTION_DDOT":"0.0000000000000"},{"DECAY_DATE":null,"BSTAR":"-0.00002966800000","LAUNCH_DATE":"2020-09-03","TLE_LINE2":"2 46327  53.0548 216.8147 0001893  71.3923 288.7271 15.06391449 68117","MEAN_MOTION":"15.06391449","APOAPSIS":"548.551","MEAN_MOTION_DDOT":"0.0000000000000","INCLINATION":"53.0548","EPOCH":"2021-11-22T10:20:25.564416","CENTER_NAME":"EARTH","TIME_SYSTEM":"UTC","OBJECT_ID":"2020-062C","COUNTRY_CODE":"US","EPHEMERIS_TYPE":"0","GP_ID":"190267999","MEAN_MOTION_DOT":"-0.00000723","REF_FRAME":"TEME","MEAN_ANOMALY":"288.7271","ECCENTRICITY":"0.00018930","RCS_SIZE":"LARGE","OBJECT_NAME":"STARLINK-1673","ARG_OF_PERICENTER":"71.3923","FILE":"3221374","OBJECT_TYPE":"PAYLOAD","TLE_LINE1":"1 46327U 20062C   21326.43085144 -.00000723  00000-0 -29668-4 0  9994","REV_AT_EPOCH":"6811","PERIOD":"95.593","ELEMENT_SET_NO":"999","PERIAPSIS":"545.929","MEAN_ELEMENT_THEORY":"SGP4","SITE":"AFETR","NORAD_CAT_ID":"46327","CLASSIFICATION_TYPE":"U","SEMIMAJOR_AXIS":"6925.375","RA_OF_ASC_NODE":"216.8147"},{"OBJECT_ID":"2020-062D","EPHEMERIS_TYPE":"0","COUNTRY_CODE":"US","CENTER_NAME":"EARTH","TIME_SYSTEM":"UTC","ECCENTRICITY":"0.00018340","MEAN_MOTION_DOT":"0.00001463","GP_ID":"190264205","REF_FRAME":"TEME","MEAN_ANOMALY":"279.9663","BSTAR":"0.00011710000000","LAUNCH_DATE":"2020-09-03","DECAY_DATE":null,"TLE_LINE2":"2 46328  53.0542 197.1964 0001834  80.1533 279.9663 15.06393591 68207","INCLINATION":"53.0542","EPOCH":"2021-11-22T08:15:41.871168","MEAN_MOTION":"15.06393591","MEAN_MOTION_DDOT":"0.0000000000000","APOAPSIS":"548.503","NORAD_CAT_ID":"46328","CLASSIFICATION_TYPE":"U","MEAN_ELEMENT_THEORY":"SGP4","PERIAPSIS":"545.963","ELEMENT_SET_NO":"999","SITE":"AFETR","SEMIMAJOR_AXIS":"6925.368","RA_OF_ASC_NODE":"197.1964","RCS_SIZE":"LARGE","OBJECT_NAME":"STARLINK-1686","ARG_OF_PERICENTER":"80.1533","REV_AT_EPOCH":"6820","TLE_LINE1":"1 46328U 20062D   21326.34423462  .00001463  00000-0  11710-3 0  9992","PERIOD":"95.593","FILE":"3221278","OBJECT_TYPE":"PAYLOAD"},{"TLE_LINE2":"2 46329  53.0541 199.1262 0001900  68.7675 291.3517 15.06399457 68138","LAUNCH_DATE":"2020-09-03","BSTAR":"0.00009893400000","DECAY_DATE":null,"MEAN_MOTION_DDOT":"0.0000000000000","APOAPSIS":"548.531","MEAN_MOTION":"15.06399457","EPOCH":"2021-11-21T21:54:41.217984","INCLINATION":"53.0541","TIME_SYSTEM":"UTC","CENTER_NAME":"EARTH","EPHEMERIS_TYPE":"0","COUNTRY_CODE":"US","OBJECT_ID":"2020-062E","MEAN_ANOMALY":"291.3517","REF_FRAME":"TEME","MEAN_MOTION_DOT":"0.00001192","GP_ID":"190264456","ECCENTRICITY":"0.00019000","ARG_OF_PERICENTER":"68.7675","OBJECT_NAME":"STARLINK-1695","RCS_SIZE":"LARGE","OBJECT_TYPE":"PAYLOAD","FILE":"3221278","PERIOD":"95.592","REV_AT_EPOCH":"6813","TLE_LINE1":"1 46329U 20062E   21325.91297706  .00001192  00000-0  98934-4 0  9998","SITE":"AFETR","MEAN_ELEMENT_THEORY":"SGP4","ELEMENT_SET_NO":"999","PERIAPSIS":"545.899","CLASSIFICATION_TYPE":"U","NORAD_CAT_ID":"46329","RA_OF_ASC_NODE":"199.1262","SEMIMAJOR_AXIS":"6925.350"}];
